[
    {
        "Altitude(m)": 604983.0530542595,
        "Argument of Periapsis(deg)": 0.0,
        "Eccentricity": 0.0,
        "Inclination(deg)": 60.0,
        "Latitude(deg)": -0.09271892236431169,
        "Longitude(deg)": -124.91608373086359,
        "Mean Anomaly(deg)": 180.00000000000003,
        "RAAN(deg)": 155.0,
        "Satellite Name": "Test1 693",
        "Satellite Number": 693,
        "Semi-Major Axis(m)": 6980739.136638005,
        "Time(s)": 0
    },
    {
        "Altitude(m)": 605055.333013512,
        "Argument of Periapsis(deg)": 0.00010418945913296404,
        "Eccentricity": 0.0,
        "Inclination(deg)": 60.0,
        "Latitude(deg)": -0.6331291817270085,
        "Longitude(deg)": -124.64795958461801,
        "Mean Anomaly(deg)": 180.62010614546185,
        "RAAN(deg)": 154.99957995086027,
        "Satellite Name": "Test1 693",
        "Satellite Number": 693,
        "Semi-Major Axis(m)": 6980739.136638005,
        "Time(s)": 10
    }
]